OBJECT_NAME,OBJECT_ID,EPOCH,MEAN_MOTION,ECCENTRICITY,INCLINATION,RA_OF_ASC_NODE,ARG_OF_PERICENTER,MEAN_ANOMALY,EPHEMERIS_TYPE,CLASSIFICATION_TYPE,NORAD_CAT_ID,ELEMENT_SET_NO,REV_AT_EPOCH,BSTAR,MEAN_MOTION_DOT,MEAN_MOTION_DDOT
LEMUR-2-ROUNDTRIPPER,2025-009DG,2026-06-18T16:34:37.769952,15.03812537,.0005502,97.7254,252.3680,126.3822,233.7912,0,U,62711,999,7785,.49098E-3,.6692E-4,0
LEMUR-2-MYNAMEISJEFF,2025-009DH,2026-06-18T11:44:52.840608,15.03815478,.0003717,97.7300,252.5488,147.6038,212.5416,0,U,62712,999,7782,.47823E-3,.6516E-4,0
LEMUR-2-LEIA-PHILIP,2025-052AN,2026-06-18T14:33:41.041728,14.97321945,.0002699,97.6836,61.5341,205.2686,154.8404,0,U,63246,999,6888,.54694E-4,.577E-5,0
LEMUR-2-LIA-MARTIN,2025-052AQ,2026-06-18T14:40:18.331392,14.97811281,.0002967,97.6887,62.0158,155.0061,205.1306,0,U,63248,999,6889,.2431E-3,.2798E-4,0
LEMUR-2-DELOITTE-1,2025-052BB,2026-06-18T06:05:30.981120,14.97612095,.0003455,97.6922,61.9920,94.8418,265.3198,0,U,63259,999,6885,.32332E-3,.3722E-4,0
LEMUR-2-EMERSONROSE,2025-052BD,2026-06-18T16:41:04.973280,14.99087513,.0001725,97.6880,62.9884,68.9535,291.1872,0,U,63261,999,6896,.23985E-3,.2854E-4,0
LEMUR-2-MARACHE-FRAN,2025-052BE,2026-06-18T14:28:01.051680,15.00113345,.0005223,97.6937,63.2169,18.0876,342.0533,0,U,63262,999,6897,.33013E-3,.4059E-4,0
LEMUR-2-THEFALCONER,2025-052BG,2026-06-18T16:21:04.642272,14.97395786,.000247,97.6855,62.0324,28.4453,331.6904,0,U,63264,999,6891,.21384E-3,.2428E-4,0
LEMUR-2-UNTITLED-SC,2025-061A,2026-06-18T08:16:37.715808,15.13483631,.0016932,97.5636,144.6980,259.9891,99.9430,0,U,63351,999,6776,.1924E-3,.3387E-4,0
LEMUR-2-ESPERANZA,2025-061B,2026-06-18T15:39:35.692416,15.13578503,.0016537,97.5645,145.0973,258.2498,101.6878,0,U,63352,999,6781,.1539E-3,.2702E-4,0
LEMUR-2-KREMPEL-BRO2,2025-061C,2026-06-18T16:17:50.125632,15.14015093,.0017552,97.5692,145.6589,249.8907,110.0436,0,U,63353,999,6783,.18562E-3,.3315E-4,0
LEMUR-2-THERMORAPTOR,2025-061D,2026-06-18T15:51:53.933760,15.14095252,.001726,97.5696,145.7171,248.7005,111.2383,0,U,63354,999,6783,.17165E-3,.3067E-4,0
LEMUR-2-NEUROSPICY,2025-061E,2026-06-18T08:50:18.619584,15.14208053,.0015043,97.5625,145.0511,253.4986,106.4593,0,U,63355,999,6779,.16326E-3,.2921E-4,0
LEMUR-2-TILLINFINITY,2025-061F,2026-06-18T09:40:26.009184,15.14794824,.0016429,97.5609,145.3770,240.3326,119.6270,0,U,63356,999,6782,.18417E-3,.3361E-4,0
LEMUR-2-KREMPEL-BRO1,2025-061G,2026-06-18T09:02:27.314592,15.14599257,.0017049,97.5612,145.2664,242.0323,117.9183,0,U,63357,999,6781,.15392E-3,.2783E-4,0
LEMUR-2-LANGER2SPACE,2025-061H,2026-06-18T11:16:07.182048,15.14297359,.0014979,97.5615,145.1723,251.3473,108.6133,0,U,63358,999,6781,.18495E-3,.3327E-4,0
LEMUR-2-BALTO,2025-052BH,2026-06-18T10:53:52.996704,15.00098869,.0006901,97.6897,63.0474,54.5649,305.6218,0,U,63395,999,6895,.39494E-3,.4868E-4,0
LEMUR-2-KRISH,2025-135AK,2026-06-18T06:40:30.947808,14.96218577,.0001739,97.7756,284.1466,98.1079,262.0340,0,U,64561,999,5408,.37377E-3,.4158E-4,0
LEMUR-2-HUBBLE-4,2025-135AP,2026-06-18T13:02:49.212096,14.93201627,.0000916,97.7701,283.4330,296.8143,63.2982,0,U,64565,999,5407,.12723E-3,.1273E-4,0
LEMUR-2-SEJONG-2,2025-135BL,2026-06-18T17:00:47.611296,14.96705095,.0003693,97.7687,284.7191,332.3257,27.7767,0,U,64586,999,5417,.29041E-3,.3259E-4,0
LEMUR-2-HUBBLE-5,2025-135BT,2026-06-18T13:31:53.126112,14.94138732,.0004978,97.7720,284.0892,348.9414,11.1695,0,U,64840,999,5411,.83873E-4,.84E-5,0
LEMUR-2-KARENDARRELL,2025-135BU,2026-06-18T14:03:19.721088,15.00126484,.0009775,97.7684,285.7910,196.6049,163.4855,0,U,64841,999,5422,.49426E-3,.6114E-4,0
LEMUR-2-LUCILLE-ROSE,2025-135BV,2026-06-18T07:01:12.717984,15.00164541,.00112551,97.7766,285.5192,278.7265,81.2683,0,U,65403,999,4880,.38909958E-3,.4805E-4,0
LEMUR-2-AFFIE-WAUWIE,2025-248C,2026-06-18T13:26:42.012672,15.27183176,.0007323,45.3926,107.5487,94.5621,265.6105,0,U,66295,999,3480,.50907E-3,.13549E-3,0
LEMUR-2-DEANANDMAEVE,2025-276N,2026-06-18T13:34:35.501952,15.19746440,.0005565,97.4208,243.0185,9.8308,350.3034,0,U,66678,999,3062,.24502E-3,.5173E-4,0
LEMUR-2-STAS-GORBUK,2025-276W,2026-06-18T10:46:16.080672,15.19392017,.0004967,97.4243,242.9585,11.3869,348.7477,0,U,66686,999,3060,.20115E-3,.419E-4,0
LEMUR-2-TEODOR,2025-276DG,2026-06-18T16:39:51.066720,15.21063729,.0002199,97.4148,243.4381,115.4546,244.6917,0,U,66768,999,3067,.21578E-3,.4725E-4,0
LEMUR-2-LAILA,2025-276DQ,2026-06-18T11:17:49.286112,15.21283595,.0002291,97.4172,243.3394,134.2608,225.8816,0,U,66776,999,3064,.21539E-3,.4747E-4,0
LEMUR-2-CELIJO-SB-PK,2025-276DW,2026-06-18T10:29:56.732352,14.99988918,.0008705,97.5247,240.1741,129.8858,230.3133,0,U,66781,999,2281,.39573E-3,.4867E-4,0
LEMUR-2-FINNIAN,2025-276DX,2026-06-18T16:20:27.529152,15.00394305,.0008885,97.5289,240.6249,85.0478,275.1760,0,U,66782,999,2022,.44712E-3,.5566E-4,0
