LEMUR-2-ROUNDTRIPPER    
1 62711U 25009DG  26169.69071493  .00006692  00000+0  49098-3 0  9991
2 62711  97.7254 252.3680 0005502 126.3822 233.7912 15.03812537 77854
LEMUR-2-MYNAMEISJEFF    
1 62712U 25009DH  26169.48950047  .00006516  00000+0  47823-3 0  9999
2 62712  97.7300 252.5488 0003717 147.6038 212.5416 15.03815478 77824
LEMUR-2-LEIA-PHILIP     
1 63246U 25052AN  26169.60672502  .00000577  00000+0  54694-4 0  9997
2 63246  97.6836  61.5341 0002699 205.2686 154.8404 14.97321945 68888
LEMUR-2-LIA-MARTIN      
1 63248U 25052AQ  26169.61132328  .00002798  00000+0  24310-3 0  9995
2 63248  97.6887  62.0158 0002967 155.0061 205.1306 14.97811281 68894
LEMUR-2-DELOITTE-1      
1 63259U 25052BB  26169.25383080  .00003722  00000+0  32332-3 0  9991
2 63259  97.6922  61.9920 0003455  94.8418 265.3198 14.97612095 68855
LEMUR-2-EMERSONROSE     
1 63261U 25052BD  26169.69519645  .00002854  00000+0  23985-3 0  9999
2 63261  97.6880  62.9884 0001725  68.9535 291.1872 14.99087513 68962
LEMUR-2-MARACHE-FRAN    
1 63262U 25052BE  26169.60278995  .00004059  00000+0  33013-3 0  9993
2 63262  97.6937  63.2169 0005223  18.0876 342.0533 15.00113345 68974
LEMUR-2-THEFALCONER     
1 63264U 25052BG  26169.68130373  .00002428  00000+0  21384-3 0  9996
2 63264  97.6855  62.0324 0002470  28.4453 331.6904 14.97395786 68918
LEMUR-2-UNTITLED-SC     
1 63351U 25061A   26169.34488097  .00003387  00000+0  19240-3 0  9998
2 63351  97.5636 144.6980 0016932 259.9891  99.9430 15.13483631 67767
LEMUR-2-ESPERANZA       
1 63352U 25061B   26169.65249644  .00002702  00000+0  15390-3 0  9998
2 63352  97.5645 145.0973 0016537 258.2498 101.6878 15.13578503 67817
LEMUR-2-KREMPEL-BRO2    
1 63353U 25061C   26169.67905238  .00003315  00000+0  18562-3 0  9994
2 63353  97.5692 145.6589 0017552 249.8907 110.0436 15.14015093 67835
LEMUR-2-THERMORAPTOR    
1 63354U 25061D   26169.66104090  .00003067  00000+0  17165-3 0  9993
2 63354  97.5696 145.7171 0017260 248.7005 111.2383 15.14095252 67830
LEMUR-2-NEUROSPICY      
1 63355U 25061E   26169.36827106  .00002921  00000+0  16326-3 0  9997
2 63355  97.5625 145.0511 0015043 253.4986 106.4593 15.14208053 67791
LEMUR-2-TILLINFINITY    
1 63356U 25061F   26169.40307881  .00003361  00000+0  18417-3 0  9998
2 63356  97.5609 145.3770 0016429 240.3326 119.6270 15.14794824 67824
LEMUR-2-KREMPEL-BRO1    
1 63357U 25061G   26169.37670503  .00002783  00000+0  15392-3 0  9995
2 63357  97.5612 145.2664 0017049 242.0323 117.9183 15.14599257 67811
LEMUR-2-LANGER2SPACE    
1 63358U 25061H   26169.46952757  .00003327  00000+0  18495-3 0  9992
2 63358  97.5615 145.1723 0014979 251.3473 108.6133 15.14297359 67818
LEMUR-2-BALTO           
1 63395U 25052BH  26169.45408561  .00004868  00000+0  39494-3 0  9994
2 63395  97.6897  63.0474 0006901  54.5649 305.6218 15.00098869 68956
LEMUR-2-KRISH           
1 64561U 25135AK  26169.27813597  .00004158  00000+0  37377-3 0  9991
2 64561  97.7756 284.1466 0001739  98.1079 262.0340 14.96218577 54084
LEMUR-2-HUBBLE-4        
1 64565U 25135AP  26169.54362514  .00001273  00000+0  12723-3 0  9996
2 64565  97.7701 283.4330 0000916 296.8143  63.2982 14.93201627 54072
LEMUR-2-SEJONG-2        
1 64586U 25135BL  26169.70888439  .00003259  00000+0  29041-3 0  9993
2 64586  97.7687 284.7191 0003693 332.3257  27.7767 14.96705095 54172
LEMUR-2-HUBBLE-5        
1 64840U 25135BT  26169.56380933  .00000840  00000+0  83873-4 0  9993
2 64840  97.7720 284.0892 0004978 348.9414  11.1695 14.94138732 54116
LEMUR-2-KARENDARRELL    
1 64841U 25135BU  26169.58564492  .00006114  00000+0  49426-3 0  9995
2 64841  97.7684 285.7910 0009775 196.6049 163.4855 15.00126484 54227
LEMUR-2-LUCILLE-ROSE    
1 65403U 25135BV  26169.29250831  .00004805  00000+0  38910-3 0  9998
2 65403  97.7766 285.5192 0011255 278.7265  81.2683 15.00164541 48800
LEMUR-2-AFFIE-WAUWIE    
1 66295U 25248C   26169.56020848  .00013549  00000+0  50907-3 0  9991
2 66295  45.3926 107.5487 0007323  94.5621 265.6105 15.27183176 34804
LEMUR-2-DEANANDMAEVE    
1 66678U 25276N   26169.56568868  .00005173  00000+0  24502-3 0  9992
2 66678  97.4208 243.0185 0005565   9.8308 350.3034 15.19746440 30627
LEMUR-2-STAS-GORBUK     
1 66686U 25276W   26169.44879723  .00004190  00000+0  20115-3 0  9997
2 66686  97.4243 242.9585 0004967  11.3869 348.7477 15.19392017 30609
LEMUR-2-TEODOR          
1 66768U 25276DG  26169.69434105  .00004725  00000+0  21578-3 0  9994
2 66768  97.4148 243.4381 0002199 115.4546 244.6917 15.21063729 30675
LEMUR-2-LAILA           
1 66776U 25276DQ  26169.47070933  .00004747  00000+0  21539-3 0  9995
2 66776  97.4172 243.3394 0002291 134.2608 225.8816 15.21283595 30646
LEMUR-2-CELIJO-SB-PK    
1 66781U 25276DW  26169.43746218  .00004867  00000+0  39573-3 0  9993
2 66781  97.5247 240.1741 0008705 129.8858 230.3133 14.99988918 22818
LEMUR-2-FINNIAN         
1 66782U 25276DX  26169.68087418  .00005566  00000+0  44712-3 0  9999
2 66782  97.5289 240.6249 0008885  85.0478 275.1760 15.00394305 20223
